start=new Date('2022-10-23T00:00:00.000Z').valueOf();
sats=[{"EPOCH":"2022-10-22T16:35:56.845824","REV_AT_EPOCH":"9045","RCS_SIZE":"LARGE","GP_ID":"215924698","COUNTRY_CODE":"US","OBJECT_TYPE":"PAYLOAD","DECAY_DATE":null,"SITE":"AFETR","TIME_SYSTEM":"UTC","RA_OF_ASC_NODE":"41.2462","ECCENTRICITY":"0.00017010","CLASSIFICATION_TYPE":"U","TLE_LINE2":"2 47812  53.0536  41.2462 0001701  58.9116 301.2039 15.06402804 90450","BSTAR":"0.00013074000000","APOAPSIS":"548.383","CENTER_NAME":"EARTH","PERIAPSIS":"546.027","OBJECT_NAME":"STARLINK-2393","MEAN_MOTION":"15.06402804","MEAN_ANOMALY":"301.2039","NORAD_CAT_ID":"47812","FILE":"3629797","REF_FRAME":"TEME","MEAN_ELEMENT_THEORY":"SGP4","MEAN_MOTION_DOT":"0.00001666","OBJECT_ID":"2021-018AB","MEAN_MOTION_DDOT":"0.0000000000000","SEMIMAJOR_AXIS":"6925.340","TLE_LINE1":"1 47812U 21018AB  22295.69163016  .00001666  00000-0  13074-3 0  9993","ELEMENT_SET_NO":"999","PERIOD":"95.592","EPHEMERIS_TYPE":"0","INCLINATION":"53.0536","ARG_OF_PERICENTER":"58.9116","LAUNCH_DATE":"2021-03-11"},{"BSTAR":"0.00021056000000","TLE_LINE2":"2 47813  53.0545  11.6347 0001660  61.2458 298.8698 15.06405976 90921","CLASSIFICATION_TYPE":"U","ECCENTRICITY":"0.00016600","RA_OF_ASC_NODE":"11.6347","TIME_SYSTEM":"UTC","DECAY_DATE":null,"SITE":"AFETR","OBJECT_TYPE":"PAYLOAD","GP_ID":"215924448","COUNTRY_CODE":"US","RCS_SIZE":"LARGE","REV_AT_EPOCH":"9092","EPOCH":"2022-10-22T14:37:51.529152","REF_FRAME":"TEME","FILE":"3629797","NORAD_CAT_ID":"47813","MEAN_ANOMALY":"298.8698","MEAN_MOTION":"15.06405976","OBJECT_NAME":"STARLINK-2394","PERIAPSIS":"546.046","CENTER_NAME":"EARTH","APOAPSIS":"548.345","MEAN_MOTION_DDOT":"0.0000000000000","MEAN_MOTION_DOT":"0.00002857","OBJECT_ID":"2021-018AC","MEAN_ELEMENT_THEORY":"SGP4","LAUNCH_DATE":"2021-03-11","ARG_OF_PERICENTER":"61.2458","INCLINATION":"53.0545","EPHEMERIS_TYPE":"0","PERIOD":"95.592","ELEMENT_SET_NO":"999","TLE_LINE1":"1 47813U 21018AC  22295.60962418  .00002857  00000-0  21056-3 0  9990","SEMIMAJOR_AXIS":"6925.330"},{"GP_ID":"215925700","COUNTRY_CODE":"US","OBJECT_TYPE":"PAYLOAD","DECAY_DATE":null,"SITE":"AFETR","EPOCH":"2022-10-22T16:47:53.632320","REV_AT_EPOCH":"9066","RCS_SIZE":"LARGE","TLE_LINE2":"2 47814  53.0559  31.2154 0001684  59.8652 300.2504 15.06401972 90663","BSTAR":"0.00003810600000","TIME_SYSTEM":"UTC","RA_OF_ASC_NODE":"31.2154","ECCENTRICITY":"0.00016840","CLASSIFICATION_TYPE":"U","CENTER_NAME":"EARTH","APOAPSIS":"548.374","REF_FRAME":"TEME","PERIAPSIS":"546.041","OBJECT_NAME":"STARLINK-2395","MEAN_ANOMALY":"300.2504","MEAN_MOTION":"15.06401972","NORAD_CAT_ID":"47814","FILE":"3629797","MEAN_MOTION_DOT":"0.00000286","OBJECT_ID":"2021-018AD","MEAN_ELEMENT_THEORY":"SGP4","MEAN_MOTION_DDOT":"0.0000000000000","PERIOD":"95.592","EPHEMERIS_TYPE":"0","SEMIMAJOR_AXIS":"6925.343","TLE_LINE1":"1 47814U 21018AD  22295.69992630  .00000286  00000-0  38106-4 0  9998","ELEMENT_SET_NO":"999","INCLINATION":"53.0559","ARG_OF_PERICENTER":"59.8652","LAUNCH_DATE":"2021-03-11"},{"OBJECT_TYPE":"PAYLOAD","DECAY_DATE":null,"SITE":"AFETR","COUNTRY_CODE":"US","GP_ID":"215925450","REV_AT_EPOCH":"9066","RCS_SIZE":"LARGE","EPOCH":"2022-10-22T15:58:08.405184","BSTAR":"-0.00006148000000","TLE_LINE2":"2 47815  53.0563  26.3734 0001914  49.2058 310.9097 15.06392369 90661","CLASSIFICATION_TYPE":"U","ECCENTRICITY":"0.00019140","TIME_SYSTEM":"UTC","RA_OF_ASC_NODE":"26.3734","CENTER_NAME":"EARTH","APOAPSIS":"548.562","REF_FRAME":"TEME","FILE":"3629797","NORAD_CAT_ID":"47815","MEAN_ANOMALY":"310.9097","MEAN_MOTION":"15.06392369","PERIAPSIS":"545.911","OBJECT_NAME":"STARLINK-2396","MEAN_MOTION_DOT":"-0.00001197","OBJECT_ID":"2021-018AE","MEAN_ELEMENT_THEORY":"SGP4","MEAN_MOTION_DDOT":"0.0000000000000","EPHEMERIS_TYPE":"0","PERIOD":"95.593","ELEMENT_SET_NO":"999","TLE_LINE1":"1 47815U 21018AE  22295.66537506 -.00001197  00000-0 -61480-4 0  9998","SEMIMAJOR_AXIS":"6925.372","LAUNCH_DATE":"2021-03-11","ARG_OF_PERICENTER":"49.2058","INCLINATION":"53.0563"},{"RCS_SIZE":"LARGE","REV_AT_EPOCH":"9057","EPOCH":"2022-10-22T12:59:39.833664","SITE":"AFETR","DECAY_DATE":null,"OBJECT_TYPE":"PAYLOAD","COUNTRY_CODE":"US","GP_ID":"215891501","CLASSIFICATION_TYPE":"U","ECCENTRICITY":"0.00014970","TIME_SYSTEM":"UTC","RA_OF_ASC_NODE":"31.9250","BSTAR":"0.00005565000000","TLE_LINE2":"2 47816  53.0569  31.9250 0001497  77.7845 282.3311 15.06397974 90577","CENTER_NAME":"EARTH","APOAPSIS":"548.256","FILE":"3629476","NORAD_CAT_ID":"47816","MEAN_ANOMALY":"282.3311","MEAN_MOTION":"15.06397974","OBJECT_NAME":"STARLINK-2399","PERIAPSIS":"546.183","REF_FRAME":"TEME","MEAN_ELEMENT_THEORY":"SGP4","OBJECT_ID":"2021-018AF","MEAN_MOTION_DOT":"0.00000547","MEAN_MOTION_DDOT":"0.0000000000000","TLE_LINE1":"1 47816U 21018AF  22295.54143326  .00000547  00000-0  55650-4 0  9997","ELEMENT_SET_NO":"999","SEMIMAJOR_AXIS":"6925.355","EPHEMERIS_TYPE":"0","PERIOD":"95.592","LAUNCH_DATE":"2021-03-11","ARG_OF_PERICENTER":"77.7845","INCLINATION":"53.0569"},{"EPHEMERIS_TYPE":"0","PERIOD":"95.593","ELEMENT_SET_NO":"999","TLE_LINE1":"1 47817U 21018AG  22295.69255853 -.00000486  00000-0 -13710-4 0  9998","SEMIMAJOR_AXIS":"6925.372","ARG_OF_PERICENTER":"55.1000","LAUNCH_DATE":"2021-03-11","INCLINATION":"53.0558","OBJECT_ID":"2021-018AG","MEAN_MOTION_DOT":"-0.00000486","MEAN_ELEMENT_THEORY":"SGP4","MEAN_MOTION_DDOT":"0.0000000000000","APOAPSIS":"548.422","CENTER_NAME":"EARTH","REF_FRAME":"TEME","NORAD_CAT_ID":"47817","FILE":"3629797","OBJECT_NAME":"STARLINK-2400","PERIAPSIS":"546.051","MEAN_ANOMALY":"305.0150","MEAN_MOTION":"15.06392409","DECAY_DATE":null,"SITE":"AFETR","OBJECT_TYPE":"PAYLOAD","COUNTRY_CODE":"US","GP_ID":"215924949","RCS_SIZE":"LARGE","REV_AT_EPOCH":"9059","EPOCH":"2022-10-22T16:37:17.056992","TLE_LINE2":"2 47817  53.0558  31.2569 0001712  55.1000 305.0150 15.06392409 90599","BSTAR":"-0.00001371000000","ECCENTRICITY":"0.00017120","CLASSIFICATION_TYPE":"U","TIME_SYSTEM":"UTC","RA_OF_ASC_NODE":"31.2569"},{"MEAN_MOTION_DDOT":"0.0000000000000","MEAN_ELEMENT_THEORY":"SGP4","MEAN_MOTION_DOT":"-0.00000595","OBJECT_ID":"2021-018AH","LAUNCH_DATE":"2021-03-11","ARG_OF_PERICENTER":"59.0945","INCLINATION":"53.0558","ELEMENT_SET_NO":"999","TLE_LINE1":"1 47818U 21018AH  22295.78514662 -.00000595  00000-0 -21043-4 0  9994","SEMIMAJOR_AXIS":"6925.344","EPHEMERIS_TYPE":"0","PERIOD":"95.592","CLASSIFICATION_TYPE":"U","ECCENTRICITY":"0.00014730","RA_OF_ASC_NODE":"35.8198","TIME_SYSTEM":"UTC","BSTAR":"-0.00002104300000","TLE_LINE2":"2 47818  53.0558  35.8198 0001473  59.0945 301.0188 15.06401340 90540","RCS_SIZE":"LARGE","REV_AT_EPOCH":"9054","EPOCH":"2022-10-22T18:50:36.667968","DECAY_DATE":null,"OBJECT_TYPE":"PAYLOAD","SITE":"AFETR","COUNTRY_CODE":"US","GP_ID":"215925200","FILE":"3629797","NORAD_CAT_ID":"47818","MEAN_ANOMALY":"301.0188","MEAN_MOTION":"15.06401340","OBJECT_NAME":"STARLINK-2401","PERIAPSIS":"546.189","REF_FRAME":"TEME","APOAPSIS":"548.230","CENTER_NAME":"EARTH"},{"MEAN_MOTION_DDOT":"0.0000000000000","MEAN_ELEMENT_THEORY":"SGP4","MEAN_MOTION_DOT":"-0.00000589","OBJECT_ID":"2021-018AJ","INCLINATION":"53.0572","LAUNCH_DATE":"2021-03-11","ARG_OF_PERICENTER":"49.9015","SEMIMAJOR_AXIS":"6925.372","ELEMENT_SET_NO":"999","TLE_LINE1":"1 47819U 21018AJ  22295.76164710 -.00000589  00000-0 -20663-4 0  9998","PERIOD":"95.593","EPHEMERIS_TYPE":"0","RA_OF_ASC_NODE":"30.9275","TIME_SYSTEM":"UTC","CLASSIFICATION_TYPE":"U","ECCENTRICITY":"0.00015710","BSTAR":"-0.00002066300000","TLE_LINE2":"2 47819  53.0572  30.9275 0001571  49.9015 310.2112 15.06392494 90676","EPOCH":"2022-10-22T18:16:46.309440","RCS_SIZE":"LARGE","REV_AT_EPOCH":"9067","GP_ID":"215925951","COUNTRY_CODE":"US","OBJECT_TYPE":"PAYLOAD","DECAY_DATE":null,"SITE":"AFETR","MEAN_ANOMALY":"310.2112","MEAN_MOTION":"15.06392494","OBJECT_NAME":"STARLINK-2402","PERIAPSIS":"546.149","FILE":"3629797","NORAD_CAT_ID":"47819","REF_FRAME":"TEME","APOAPSIS":"548.325","CENTER_NAME":"EARTH"},{"MEAN_ELEMENT_THEORY":"SGP4","OBJECT_ID":"2021-018AK","MEAN_MOTION_DOT":"0.00000535","MEAN_MOTION_DDOT":"0.0000000000000","TLE_LINE1":"1 47820U 21018AK  22295.74323411  .00000535  00000-0  54815-4 0  9998","ELEMENT_SET_NO":"999","SEMIMAJOR_AXIS":"6925.344","EPHEMERIS_TYPE":"0","PERIOD":"95.592","ARG_OF_PERICENTER":"68.9333","LAUNCH_DATE":"2021-03-11","INCLINATION":"53.0563","RCS_SIZE":"LARGE","REV_AT_EPOCH":"9052","EPOCH":"2022-10-22T17:50:15.427104","OBJECT_TYPE":"PAYLOAD","DECAY_DATE":null,"SITE":"AFETR","COUNTRY_CODE":"US","GP_ID":"215924699","ECCENTRICITY":"0.00014600","CLASSIFICATION_TYPE":"U","RA_OF_ASC_NODE":"41.0311","TIME_SYSTEM":"UTC","TLE_LINE2":"2 47820  53.0563  41.0311 0001460  68.9333 291.1812 15.06401398 90525","BSTAR":"0.00005481500000","APOAPSIS":"548.220","CENTER_NAME":"EARTH","NORAD_CAT_ID":"47820","FILE":"3629797","PERIAPSIS":"546.198","OBJECT_NAME":"STARLINK-2403","MEAN_ANOMALY":"291.1812","MEAN_MOTION":"15.06401398","REF_FRAME":"TEME"},{"SEMIMAJOR_AXIS":"6925.341","ELEMENT_SET_NO":"999","TLE_LINE1":"1 47821U 21018AL  22295.65569354  .00001154  00000-0  96329-4 0  9991","PERIOD":"95.592","EPHEMERIS_TYPE":"0","INCLINATION":"53.0571","ARG_OF_PERICENTER":"80.8733","LAUNCH_DATE":"2021-03-11","MEAN_ELEMENT_THEORY":"SGP4","OBJECT_ID":"2021-018AL","MEAN_MOTION_DOT":"0.00001154","MEAN_MOTION_DDOT":"0.0000000000000","APOAPSIS":"548.213","CENTER_NAME":"EARTH","OBJECT_NAME":"STARLINK-2406","PERIAPSIS":"546.199","MEAN_MOTION":"15.06402414","MEAN_ANOMALY":"279.2421","NORAD_CAT_ID":"47821","FILE":"3629797","REF_FRAME":"TEME","EPOCH":"2022-10-22T15:44:11.921856","REV_AT_EPOCH":"9059","RCS_SIZE":"LARGE","GP_ID":"215924449","COUNTRY_CODE":"US","DECAY_DATE":null,"OBJECT_TYPE":"PAYLOAD","SITE":"AFETR","TIME_SYSTEM":"UTC","RA_OF_ASC_NODE":"31.4318","ECCENTRICITY":"0.00014540","CLASSIFICATION_TYPE":"U","TLE_LINE2":"2 47821  53.0571  31.4318 0001454  80.8733 279.2421 15.06402414 90595","BSTAR":"0.00009632900000"}];
